[{"OBJECT_NAME":"ONEWEB-0412","OBJECT_ID":"2021-132W","EPOCH":"2026-03-03T18:54:31.671648","MEAN_MOTION":13.18686416,"ECCENTRICITY":0.00014908,"INCLINATION":87.9252,"RA_OF_ASC_NODE":356.3888,"ARG_OF_PERICENTER":83.4747,"MEAN_ANOMALY":276.6555,"EPHEMERIS_TYPE":0,"CLASSIFICATION_TYPE":"U","NORAD_CAT_ID":50489,"ELEMENT_SET_NO":999,"REV_AT_EPOCH":20776,"BSTAR":0.00019015402,"MEAN_MOTION_DOT":8.8e-7,"MEAN_MOTION_DDOT":0},{"OBJECT_NAME":"ONEWEB-0413","OBJECT_ID":"2021-132X","EPOCH":"2026-03-03T19:01:39.760320","MEAN_MOTION":13.18686136,"ECCENTRICITY":0.00016001,"INCLINATION":87.9242,"RA_OF_ASC_NODE":356.393,"ARG_OF_PERICENTER":88.1306,"MEAN_ANOMALY":272.0009,"EPHEMERIS_TYPE":0,"CLASSIFICATION_TYPE":"U","NORAD_CAT_ID":50490,"ELEMENT_SET_NO":999,"REV_AT_EPOCH":20770,"BSTAR":0.00013980867,"MEAN_MOTION_DOT":6.8e-7,"MEAN_MOTION_DDOT":0},{"OBJECT_NAME":"ONEWEB-0414","OBJECT_ID":"2021-132Y","EPOCH":"2026-03-03T20:29:31.566048","MEAN_MOTION":13.18688039,"ECCENTRICITY":0.0001619,"INCLINATION":87.925,"RA_OF_ASC_NODE":356.3519,"ARG_OF_PERICENTER":77.3136,"MEAN_ANOMALY":282.8177,"EPHEMERIS_TYPE":0,"CLASSIFICATION_TYPE":"U","NORAD_CAT_ID":50491,"ELEMENT_SET_NO":999,"REV_AT_EPOCH":20774,"BSTAR":0.00012367,"MEAN_MOTION_DOT":6.2e-7,"MEAN_MOTION_DDOT":0},{"OBJECT_NAME":"ONEWEB-0417","OBJECT_ID":"2021-132Z","EPOCH":"2026-03-03T18:52:08.289120","MEAN_MOTION":13.18695413,"ECCENTRICITY":0.00019479,"INCLINATION":87.9239,"RA_OF_ASC_NODE":356.3937,"ARG_OF_PERICENTER":74.0956,"MEAN_ANOMALY":286.0391,"EPHEMERIS_TYPE":0,"CLASSIFICATION_TYPE":"U","NORAD_CAT_ID":50492,"ELEMENT_SET_NO":999,"REV_AT_EPOCH":20771,"BSTAR":0.002672185,"MEAN_MOTION_DOT":1.067e-5,"MEAN_MOTION_DDOT":0},{"OBJECT_NAME":"ONEWEB-0418","OBJECT_ID":"2021-132AA","EPOCH":"2026-03-03T19:06:11.682720","MEAN_MOTION":13.18684815,"ECCENTRICITY":0.00019153,"INCLINATION":87.925,"RA_OF_ASC_NODE":356.3812,"ARG_OF_PERICENTER":69.0622,"MEAN_ANOMALY":291.0715,"EPHEMERIS_TYPE":0,"CLASSIFICATION_TYPE":"U","NORAD_CAT_ID":50493,"ELEMENT_SET_NO":999,"REV_AT_EPOCH":20777,"BSTAR":4.0847179e-5,"MEAN_MOTION_DOT":2.9e-7,"MEAN_MOTION_DDOT":0},{"OBJECT_NAME":"ONEWEB-0419","OBJECT_ID":"2021-132AB","EPOCH":"2026-03-03T19:32:32.604864","MEAN_MOTION":13.18686347,"ECCENTRICITY":0.0002113,"INCLINATION":87.9251,"RA_OF_ASC_NODE":356.3779,"ARG_OF_PERICENTER":75.5231,"MEAN_ANOMALY":284.6135,"EPHEMERIS_TYPE":0,"CLASSIFICATION_TYPE":"U","NORAD_CAT_ID":50494,"ELEMENT_SET_NO":999,"REV_AT_EPOCH":20769,"BSTAR":0.0001177,"MEAN_MOTION_DOT":5.9e-7,"MEAN_MOTION_DDOT":0},{"OBJECT_NAME":"ONEWEB-0420","OBJECT_ID":"2021-132AC","EPOCH":"2026-03-03T18:42:39.442752","MEAN_MOTION":13.18685289,"ECCENTRICITY":0.0001816,"INCLINATION":87.9244,"RA_OF_ASC_NODE":356.3966,"ARG_OF_PERICENTER":84.0705,"MEAN_ANOMALY":276.0634,"EPHEMERIS_TYPE":0,"CLASSIFICATION_TYPE":"U","NORAD_CAT_ID":50495,"ELEMENT_SET_NO":999,"REV_AT_EPOCH":20768,"BSTAR":-2.0695e-5,"MEAN_MOTION_DOT":5.0e-8,"MEAN_MOTION_DDOT":0},{"OBJECT_NAME":"ONEWEB-0421","OBJECT_ID":"2021-132AD","EPOCH":"2026-03-03T20:22:24.858048","MEAN_MOTION":13.18686108,"ECCENTRICITY":0.0001527,"INCLINATION":87.9251,"RA_OF_ASC_NODE":356.3748,"ARG_OF_PERICENTER":76.4786,"MEAN_ANOMALY":283.6516,"EPHEMERIS_TYPE":0,"CLASSIFICATION_TYPE":"U","NORAD_CAT_ID":50496,"ELEMENT_SET_NO":999,"REV_AT_EPOCH":20773,"BSTAR":7.7276e-5,"MEAN_MOTION_DOT":4.3e-7,"MEAN_MOTION_DDOT":0},{"OBJECT_NAME":"ONEWEB-0424","OBJECT_ID":"2021-132AE","EPOCH":"2026-03-03T19:25:24.934368","MEAN_MOTION":13.18686637,"ECCENTRICITY":0.0002192,"INCLINATION":87.9251,"RA_OF_ASC_NODE":356.3785,"ARG_OF_PERICENTER":78.6928,"MEAN_ANOMALY":281.445,"EPHEMERIS_TYPE":0,"CLASSIFICATION_TYPE":"U","NORAD_CAT_ID":50497,"ELEMENT_SET_NO":999,"REV_AT_EPOCH":20775,"BSTAR":7.4594e-5,"MEAN_MOTION_DOT":4.2e-7,"MEAN_MOTION_DDOT":0},{"OBJECT_NAME":"ONEWEB-0426","OBJECT_ID":"2021-132AF","EPOCH":"2026-03-03T20:17:39.591168","MEAN_MOTION":13.18686473,"ECCENTRICITY":0.0001463,"INCLINATION":87.925,"RA_OF_ASC_NODE":356.3629,"ARG_OF_PERICENTER":57.9687,"MEAN_ANOMALY":302.1587,"EPHEMERIS_TYPE":0,"CLASSIFICATION_TYPE":"U","NORAD_CAT_ID":50498,"ELEMENT_SET_NO":999,"REV_AT_EPOCH":20770,"BSTAR":0.00012818,"MEAN_MOTION_DOT":6.3e-7,"MEAN_MOTION_DDOT":0},{"OBJECT_NAME":"ONEWEB-0427","OBJECT_ID":"2021-132AG","EPOCH":"2026-03-03T19:23:02.502240","MEAN_MOTION":13.18686902,"ECCENTRICITY":0.0001886,"INCLINATION":87.9251,"RA_OF_ASC_NODE":356.357,"ARG_OF_PERICENTER":71.4875,"MEAN_ANOMALY":288.6462,"EPHEMERIS_TYPE":0,"CLASSIFICATION_TYPE":"U","NORAD_CAT_ID":50499,"ELEMENT_SET_NO":999,"REV_AT_EPOCH":20772,"BSTAR":0.00092595,"MEAN_MOTION_DOT":3.78e-6,"MEAN_MOTION_DDOT":0},{"OBJECT_NAME":"ONEWEB-0429","OBJECT_ID":"2021-132AH","EPOCH":"2026-03-03T19:04:01.879680","MEAN_MOTION":13.18685712,"ECCENTRICITY":0.00018168,"INCLINATION":87.9247,"RA_OF_ASC_NODE":356.3924,"ARG_OF_PERICENTER":84.7432,"MEAN_ANOMALY":275.3908,"EPHEMERIS_TYPE":0,"CLASSIFICATION_TYPE":"U","NORAD_CAT_ID":50500,"ELEMENT_SET_NO":999,"REV_AT_EPOCH":20769,"BSTAR":0.0001104508,"MEAN_MOTION_DOT":5.6e-7,"MEAN_MOTION_DDOT":0},{"OBJECT_NAME":"ONEWEB-0430","OBJECT_ID":"2021-132AJ","EPOCH":"2026-03-03T16:58:08.709600","MEAN_MOTION":13.1868657,"ECCENTRICITY":0.00020436,"INCLINATION":87.9251,"RA_OF_ASC_NODE":356.4065,"ARG_OF_PERICENTER":83.3084,"MEAN_ANOMALY":276.8281,"EPHEMERIS_TYPE":0,"CLASSIFICATION_TYPE":"U","NORAD_CAT_ID":50501,"ELEMENT_SET_NO":999,"REV_AT_EPOCH":20772,"BSTAR":8.0299821e-5,"MEAN_MOTION_DOT":4.5e-7,"MEAN_MOTION_DDOT":0},{"OBJECT_NAME":"ONEWEB-0432","OBJECT_ID":"2021-132AK","EPOCH":"2026-03-03T01:21:55.928448","MEAN_MOTION":13.18867508,"ECCENTRICITY":0.00013976,"INCLINATION":87.925,"RA_OF_ASC_NODE":356.5037,"ARG_OF_PERICENTER":75.8425,"MEAN_ANOMALY":284.2863,"EPHEMERIS_TYPE":0,"CLASSIFICATION_TYPE":"U","NORAD_CAT_ID":50502,"ELEMENT_SET_NO":999,"REV_AT_EPOCH":20759,"BSTAR":0.072213206,"MEAN_MOTION_DOT":0.00028649,"MEAN_MOTION_DDOT":0},{"OBJECT_NAME":"ONEWEB-0440","OBJECT_ID":"2021-132AL","EPOCH":"2026-03-03T19:15:54.499968","MEAN_MOTION":13.18685975,"ECCENTRICITY":0.0001456,"INCLINATION":87.9252,"RA_OF_ASC_NODE":356.3771,"ARG_OF_PERICENTER":87.1556,"MEAN_ANOMALY":272.9743,"EPHEMERIS_TYPE":0,"CLASSIFICATION_TYPE":"U","NORAD_CAT_ID":50503,"ELEMENT_SET_NO":999,"REV_AT_EPOCH":20768,"BSTAR":0.00012663,"MEAN_MOTION_DOT":6.3e-7,"MEAN_MOTION_DDOT":0},{"OBJECT_NAME":"ONEWEB-0450","OBJECT_ID":"2021-132AM","EPOCH":"2026-03-03T19:06:36.482112","MEAN_MOTION":13.18685422,"ECCENTRICITY":0.00018971,"INCLINATION":87.9241,"RA_OF_ASC_NODE":356.3944,"ARG_OF_PERICENTER":87.8943,"MEAN_ANOMALY":272.2406,"EPHEMERIS_TYPE":0,"CLASSIFICATION_TYPE":"U","NORAD_CAT_ID":50504,"ELEMENT_SET_NO":999,"REV_AT_EPOCH":20771,"BSTAR":8.3297395e-5,"MEAN_MOTION_DOT":4.6e-7,"MEAN_MOTION_DDOT":0},{"OBJECT_NAME":"ONEWEB-0410","OBJECT_ID":"2022-012A","EPOCH":"2026-03-03T19:37:45.761664","MEAN_MOTION":13.17649113,"ECCENTRICITY":0.0002054,"INCLINATION":87.915,"RA_OF_ASC_NODE":26.7716,"ARG_OF_PERICENTER":40.8919,"MEAN_ANOMALY":319.2366,"EPHEMERIS_TYPE":0,"CLASSIFICATION_TYPE":"U","NORAD_CAT_ID":51622,"ELEMENT_SET_NO":999,"REV_AT_EPOCH":19982,"BSTAR":-8.883e-6,"MEAN_MOTION_DOT":9.0e-8,"MEAN_MOTION_DDOT":0}]
