ONEWEB-0412             
1 50489U 21132W   26062.78786657  .00000088  00000+0  19015-3 0  9999
2 50489  87.9252 356.3888 0001490  83.4747 276.6555 13.18686416207761
ONEWEB-0413             
1 50490U 21132X   26062.79282130  .00000068  00000+0  13981-3 0  9993
2 50490  87.9242 356.3930 0001600  88.1306 272.0009 13.18686136207703
ONEWEB-0414             
1 50491U 21132Y   26062.85383757  .00000062  00000+0  12367-3 0  9999
2 50491  87.9250 356.3519 0001619  77.3136 282.8177 13.18688039207740
ONEWEB-0417             
1 50492U 21132Z   26062.78620705  .00001067  00000+0  26722-2 0  9994
2 50492  87.9239 356.3937 0001947  74.0956 286.0391 13.18695413207715
ONEWEB-0418             
1 50493U 21132AA  26062.79596855  .00000029  00000+0  40847-4 0  9997
2 50493  87.9250 356.3812 0001915  69.0622 291.0715 13.18684815207776
ONEWEB-0419             
1 50494U 21132AB  26062.81426627  .00000059  00000+0  11770-3 0  9995
2 50494  87.9251 356.3779 0002113  75.5231 284.6135 13.18686347207696
ONEWEB-0420             
1 50495U 21132AC  26062.77962319  .00000005  00000+0 -20695-4 0  9993
2 50495  87.9244 356.3966 0001816  84.0705 276.0634 13.18685289207689
ONEWEB-0421             
1 50496U 21132AD  26062.84889883  .00000043  00000+0  77276-4 0  9994
2 50496  87.9251 356.3748 0001527  76.4786 283.6516 13.18686108207739
ONEWEB-0424             
1 50497U 21132AE  26062.80931638  .00000042  00000+0  74594-4 0  9996
2 50497  87.9251 356.3785 0002191  78.6928 281.4450 13.18686637207753
ONEWEB-0426             
1 50498U 21132AF  26062.84559712  .00000063  00000+0  12818-3 0  9993
2 50498  87.9250 356.3629 0001463  57.9687 302.1587 13.18686473207708
ONEWEB-0427             
1 50499U 21132AG  26062.80766785  .00000378  00000+0  92595-3 0  9999
2 50499  87.9251 356.3570 0001885  71.4875 288.6462 13.18686902207722
ONEWEB-0429             
1 50500U 21132AH  26062.79446620  .00000056  00000+0  11045-3 0  9997
2 50500  87.9247 356.3924 0001816  84.7432 275.3908 13.18685712207695
ONEWEB-0430             
1 50501U 21132AJ  26062.70704525  .00000045  00000+0  80300-4 0  9999
2 50501  87.9251 356.4065 0002043  83.3084 276.8281 13.18686570207726
ONEWEB-0432             
1 50502U 21132AK  26062.05689732  .00028649  00000+0  72213-1 0  9991
2 50502  87.9250 356.5037 0001397  75.8425 284.2863 13.18867508207598
ONEWEB-0440             
1 50503U 21132AL  26062.80271412  .00000063  00000+0  12663-3 0  9992
2 50503  87.9252 356.3771 0001455  87.1556 272.9743 13.18685975207687
ONEWEB-0450             
1 50504U 21132AM  26062.79625558  .00000046  00000+0  83297-4 0  9998
2 50504  87.9241 356.3944 0001897  87.8943 272.2406 13.18685422207715
ONEWEB-0410             
1 51622U 22012A   26062.81789077  .00000009  00000+0 -88830-5 0  9997
2 51622  87.9150  26.7716 0002054  40.8919 319.2366 13.17649113199824
